KMDQ 110000Z AUTO 16013G19KT 10SM SCT047 OVC050 25/15 A2985 RMK AO2 LTG DSNT NW
KMDQ 110020Z AUTO 17009G17KT 10SM SCT048 BKN060 25/15 A2985 RMK AO2
KMDQ 110040Z AUTO 16010G16KT 10SM BKN044 BKN050 BKN060 25/15 A2985 RMK AO2
METAR KHSV 110053Z 17014KT 10SM BKN040 BKN055 24/17 A2986 RMK AO2 SLP106 T02440167
KDCU 110053Z AUTO 17013G20KT 10SM FEW060 23/17 A2984 RMK AO2 SLP100 T02330172
KMDQ 110100Z AUTO 17010G17KT 10SM SCT044 SCT049 BKN060 25/16 A2985 RMK AO2
KMDQ 110120Z AUTO 17011G17KT 10SM BKN038 BKN044 OVC060 25/16 A2986 RMK AO2
KMDQ 110140Z AUTO 16010G20KT 10SM SCT040 BKN049 OVC060 24/16 A2986 RMK AO2
KDCU 110153Z AUTO 16016G23KT 10SM CLR 23/17 A2985 RMK AO2 SLP102 T02280172
METAR KHSV 110153Z 17016KT 10SM SCT055 24/17 A2987 RMK AO2 SLP108 T02390167
KMDQ 110200Z AUTO 16011G25KT 10SM SCT040 BKN060 24/16 A2986 RMK AO2
KMDQ 110220Z AUTO 16012G20KT 10SM SCT038 BKN060 23/16 A2986 RMK AO2
KMDQ 110240Z AUTO 16012G21KT 10SM CLR 23/16 A2986 RMK AO2
METAR KHSV 110253Z 17018G24KT 10SM FEW055 23/17 A2987 RMK AO2 PK WND 17028/0156 SLP108 8/100 T02280167 50002
KDCU 110253Z AUTO 16019G26KT 10SM CLR 23/18 A2985 RMK AO2 PK WND 16026/0252 SLP101 T02280178 50001
KMDQ 110300Z AUTO 15013G20KT 10SM SCT033 23/16 A2985 RMK AO2
KMDQ 110320Z AUTO 16018G24KT 10SM SCT033 23/16 A2985 RMK AO2
KMDQ 110340Z AUTO 16014G21KT 10SM SCT031 SCT035 23/16 A2985 RMK AO2 LTG DSNT W
KDCU 110353Z AUTO 17018G26KT 10SM BKN035 22/18 A2984 RMK AO2 PK WND 17031/0331 SLP098 T02220178 TSNO
METAR KHSV 110353Z 17019G32KT 10SM SCT031 23/17 A2986 RMK AO2 PK WND 17032/0349 SLP104 T02280172
KMDQ 110400Z AUTO 16012G24KT 10SM SCT031 23/16 A2985 RMK AO2
KMDQ 110420Z AUTO 17013G20KT 10SM SCT029 23/17 A2985 RMK AO2
KMDQ 110440Z AUTO 17015G24KT 10SM BKN029 BKN035 23/17 A2985 RMK AO2
METAR KHSV 110453Z 18016G27KT 10SM SCT034 23/17 A2986 RMK AO2 PK WND 17028/0436 SLP104 T02280172
KDCU 110453Z AUTO 18017G21KT 10SM BKN031 OVC038 22/18 A2985 RMK AO2 PK WND 17027/0359 SLP101 T02220178
KMDQ 110500Z AUTO 17017G28KT 10SM OVC030 23/17 A2985 RMK AO2
KMDQ 110520Z AUTO 17016G26KT 10SM OVC032 23/17 A2985 RMK AO2 LTG DSNT NW
KMDQ 110540Z AUTO 18017G22KT 10SM BKN029 OVC036 23/17 A2985 RMK AO2
METAR KHSV 110553Z 19015G20KT 10SM BKN030 BKN036 23/17 A2987 RMK AO2 PK WND 18027/0512 SLP107 8/100 T02280172 10250 20222 402780156 55000
KDCU 110553Z AUTO 19017G24KT 10SM BKN028 OVC035 22/18 A2985 RMK AO2 PK WND 18026/0537 SLP103 T02220178 10244 20222 402560150 53003
KMDQ 110600Z AUTO 18016G22KT 10SM BKN028 OVC035 23/17 A2985 RMK AO2
KMDQ 110620Z AUTO 18012G21KT 10SM OVC029 23/17 A2986 RMK AO2
KHSV 110638Z 19018KT 10SM BKN028 OVC036 23/17 A2987 RMK AO2
KMDQ 110640Z AUTO 19014G19KT 10SM BKN029 OVC034 23/17 A2986 RMK AO2 LTG DSNT W
METAR KHSV 110653Z 18015G22KT 10SM BKN028 OVC036 22/17 A2987 RMK AO2 SLP107 T02220172
KDCU 110653Z AUTO 19016G24KT 10SM BKN028 OVC034 22/18 A2985 RMK AO2 PK WND 20026/0615 SLP101 T02220178
KMDQ 110700Z AUTO 18014G22KT 10SM SCT028 BKN033 OVC040 22/17 A2985 RMK AO2 LTG DSNT W AND NW
KMDQ 110720Z AUTO 18015G23KT 10SM SCT029 BKN035 OVC044 22/17 A2985 RMK AO2 LTG DSNT NW
KHSV 110728Z 18016G23KT 10SM SCT026 BKN036 22/17 A2987 RMK AO2 PK WND 17026/0702
KMDQ 110740Z AUTO 17015G25KT 10SM BKN026 BKN033 OVC039 22/17 A2986 RMK AO2 LTG DSNT NW
METAR KHSV 110753Z 19014G20KT 10SM BKN026 OVC034 22/17 A2988 RMK AO2 PK WND 17026/0702 SLP111 T02170172
KDCU 110753Z AUTO 18010G19KT 10SM BKN026 OVC034 22/18 A2986 RMK AO2 PK WND 18028/0704 SLP104 T02170178
KMDQ 110800Z AUTO 18015G21KT 10SM BKN027 OVC033 22/16 A2986 RMK AO2
KMDQ 110820Z AUTO 18017G22KT 10SM OVC030 22/16 A2986 RMK AO2
KMDQ 110840Z AUTO 19013KT 10SM OVC028 22/16 A2987 RMK AO2 LTG DSNT N
KDCU 110842Z AUTO 19014G20KT 10SM SCT024 SCT029 OVC043 21/18 A2986 RMK AO2
KHSV 110845Z 19015G20KT 10SM SCT026 OVC034 22/16 A2988 RMK AO2
METAR KHSV 110853Z 18015G22KT 10SM FEW028 OVC034 22/16 A2989 RMK AO2 SLP113 T02170161 51005
KDCU 110853Z AUTO 18011G20KT 10SM SCT024 OVC043 21/18 A2987 RMK AO2 SLP107 T02110178 53004
KMDQ 110900Z AUTO 19014G20KT 10SM OVC028 22/15 A2988 RMK AO2 LTG DSNT N
KMDQ 110920Z AUTO 19015G20KT 10SM OVC028 22/15 A2988 RMK AO2 LTG DSNT NW
KMDQ 110940Z AUTO 18014G20KT 10SM BKN028 BKN039 OVC044 21/15 A2987 RMK AO2 LTG DSNT N AND NW
KDCU 110953Z AUTO 17013KT 10SM SCT060 OVC120 21/18 A2986 RMK AO2 SLP105 T02060178
METAR KHSV 110953Z 18014G21KT 10SM FEW024 BKN050 OVC085 21/16 A2988 RMK AO2 SLP112 T02110161
KMDQ 111000Z AUTO 18016G22KT 10SM SCT042 BKN085 OVC120 21/15 A2987 RMK AO2 LTG DSNT NW
KMDQ 111020Z AUTO 17010G21KT 10SM SCT085 BKN120 21/15 A2986 RMK AO2
KMDQ 111040Z AUTO 18012G19KT 10SM SCT085 BKN120 21/15 A2986 RMK AO2
KDCU 111053Z AUTO 18016G20KT 10SM BKN090 BKN120 21/18 A2985 RMK AO2 SLP102 T02060178
METAR KHSV 111053Z 18015KT 10SM BKN120 21/16 A2987 RMK AO2 SLP108 T02060161
KMDQ 111100Z AUTO 17014G22KT 10SM SCT120 21/15 A2986 RMK AO2 LTG DSNT N
KMDQ 111120Z AUTO 17013G20KT 10SM SCT085 SCT120 21/15 A2986 RMK AO2
KMDQ 111140Z AUTO 18013G19KT 10SM SCT120 21/16 A2986 RMK AO2
KDCU 111153Z AUTO 18011KT 9SM FEW028 BKN120 20/18 A2986 RMK AO2 SLP105 T02000178 10222 20200 55002
METAR KHSV 111153Z 18015KT 10SM FEW065 BKN120 BKN250 21/17 A2987 RMK AO2 SLP108 8/141 T02060167 10228 20206 56005
KMDQ 111200Z AUTO 18013G20KT 10SM BKN120 21/16 A2986 RMK AO2
KMDQ 111220Z AUTO 19016KT 10SM SCT024 SCT070 SCT120 21/16 A2987 RMK AO2
KHSV 111228Z 19016G20KT 10SM BKN020 21/17 A2988 RMK AO2
KHUA 111230Z 19008G16KT 7SM BKN025 22/16 A2989 RMK FIRST
KDCU 111235Z AUTO 17011G19KT 8SM BKN019 BKN029 OVC034 21/18 A2986 RMK AO2
KMDQ 111240Z AUTO 18011G19KT 10SM BKN024 BKN029 BKN070 21/16 A2987 RMK AO2
METAR KHSV 111253Z 19015KT 10SM OVC020 21/17 A2988 RMK AO2 SLP111 T02110172
KDCU 111253Z AUTO 18013KT 8SM BKN019 OVC024 21/18 A2987 RMK AO2 SLP108 T02060183
KHUA 111255Z 19012G21KT 7SM BKN025 21/17 A2989
KMDQ 111300Z AUTO 18013G20KT 10SM BKN024 OVC120 21/16 A2987 RMK AO2
KMDQ 111320Z AUTO 19013G18KT 10SM BKN021 OVC026 21/16 A2987 RMK AO2
KMDQ 111340Z AUTO 18012G18KT 10SM OVC019 21/17 A2986 RMK AO2
KDCU 111353Z AUTO 18014G18KT 8SM SCT021 BKN026 OVC047 22/19 A2986 RMK AO2 SLP107 T02170189
METAR KHSV 111353Z 20013G23KT 10SM OVC022 22/18 A2988 RMK AO2 SLP112 T02220178
KHUA 111355Z 19012G18KT 7SM BKN028 22/18 A2988
KMDQ 111400Z AUTO 19012G18KT 10SM OVC021 21/17 A2987 RMK AO2
KDCU 111405Z AUTO 18017G23KT 8SM SCT023 BKN033 OVC055 22/19 A2986 RMK AO2
KDCU 111419Z AUTO 18012G21KT 8SM SCT021 BKN029 BKN045 22/19 A2986 RMK AO2
KMDQ 111420Z AUTO 20016G21KT 10SM OVC021 21/17 A2987 RMK AO2
KMDQ 111440Z AUTO 18015G25KT 10SM BKN021 OVC027 22/17 A2986 RMK AO2
KDCU 111453Z AUTO 19018G24KT 8SM BKN023 BKN039 OVC065 22/19 A2986 RMK AO2 SLP104 T02220189 58002
METAR KHSV 111453Z 19020G28KT 10SM BKN028 OVC095 23/18 A2988 RMK AO2 PK WND 20028/1452 SLP111 8/27/ T02330178 50003
KHUA 111455Z 19010G20KT 7SM BKN028 23/18 A2988
KMDQ 111500Z AUTO 18012G21KT 10SM BKN023 OVC030 22/17 A2986 RMK AO2
KDCU 111502Z AUTO 18018G23KT 8SM SCT023 BKN033 OVC060 22/19 A2985 RMK AO2
KMDQ 111520Z AUTO 18016G23KT 10SM BKN023 BKN027 OVC032 22/17 A2985 RMK AO2
KMDQ 111540Z AUTO 18022G29KT 10SM SCT025 BKN029 BKN034 24/17 A2984 RMK AO2
KDCU 111553Z AUTO 18023G30KT 9SM FEW023 SCT028 BKN036 24/19 A2982 RMK AO2 PK WND 19030/1553 SLP093 T02440194
METAR KHSV 111553Z 19020G32KT 9SM SCT026 BKN080 26/18 A2985 RMK AO2 PK WND 21032/1549 SLP100 T02560178
KHUA 111555Z 18013G23KT 7SM BKN030 25/18 A2985
KMDQ 111600Z AUTO 19023G28KT 10SM BKN027 BKN033 BKN055 25/17 A2983 RMK AO2 LTG DSNT NW
KMDQ 111620Z AUTO 19019G31KT 10SM BKN029 BKN035 OVC041 25/17 A2981 RMK AO2
KMDQ 111640Z AUTO 19023G31KT 10SM BKN032 BKN039 OVC046 25/17 A2980 RMK AO2
METAR KHSV 111653Z 19022G28KT 10SM BKN033 BKN045 BKN250 26/18 A2981 RMK AO2 PK WND 20032/1559 SLP086 T02610183
KDCU 111653Z AUTO 20020G32KT 9SM BKN034 BKN047 OVC060 24/19 A2979 RMK AO2 PK WND 19032/1647 LTG DSNT SW SLP081 T02440189
KHUA 111655Z 19013G26KT 7SM BKN030 27/18 A2981
KMDQ 111700Z AUTO 19026G32KT 10SM BKN034 BKN047 BKN075 25/17 A2980 RMK AO2 LTG DSNT SW THRU NW
KMDQ 111720Z AUTO 19018G26KT 10SM SCT034 BKN040 OVC060 25/17 A2978 RMK AO2 LTG DSNT NW
KMDQ 111740Z AUTO 19023G33KT 10SM SCT036 BKN042 OVC060 26/17 A2977 RMK AO2 LTG DSNT N
METAR KHSV 111753Z 20019G34KT 10SM R18R/4500VP6000FT SCT041 BKN050 BKN065 27/17 A2977 RMK AO2 PK WND 19034/1744 SLP073 8/800 T02720172 10283 20206 58036
KDCU 111753Z AUTO 19017G24KT 10SM BKN040 BKN047 OVC060 24/19 A2975 RMK AO2 PK WND 19029/1709 RAB18E38 SLP068 P0000 60000 T02440189 10250 20200 58035
KHUA 111755Z 19018G23KT 7SM BKN028 BKN035 27/17 A2977
KMDQ 111800Z AUTO 19018G25KT 10SM SCT037 SCT044 BKN050 26/17 A2976 RMK AO2 LTG DSNT N
KDCU 111810Z AUTO 20012G25KT 2 1/2SM +RA FEW002 BKN042 OVC075 23/19 A2974 RMK AO2 LTG DSNT NW RAB01 P0007
KMDQ 111820Z AUTO 19018G25KT 10SM SCT038 BKN050 OVC070 26/17 A2974 RMK AO2 LTG DSNT W THRU NE
KDCU 111822Z AUTO 21019G30KT 7SM -RA FEW007 BKN042 OVC065 24/19 A2975 RMK AO2 PK WND 20030/1820 LTG DSNT W-N RAB01 P0009
KDCU 111830Z AUTO 22010G28KT 7SM -TSRA FEW007 BKN050 OVC070 23/19 A2975 RMK AO2 PK WND 20030/1820 LTG DSNT ALQDS TSB24RAB01 P0009
KMDQ 111840Z AUTO 19021G26KT 7SM -VCTSRA SCT039 SCT047 OVC060 24/18 A2974 RMK AO2 LTG DSNT ALQS
KDCU 111853Z AUTO 25008KT 9SM VCTS -RA SCT044 BKN065 OVC085 22/19 A2976 RMK AO2 PK WND 20030/1820 LTG DSNT ALQDS TSB24E51B52RAB01 SLP073 P0009 T02220194
METAR KHSV 111853Z 21016G28KT 10SM SCT048CB BKN055 BKN070 OVC200 26/17 A2977 RMK AO2 PK WND 19030/1804 SLP075 CB NW MOV NE T02610172
KHUA 111855Z 20014G20KT 7SM BKN028 BKN035 26/18 A2977
KHSV 111857Z 22015G26KT 10SM TS BKN048CB BKN055 BKN070 OVC200 26/17 A2977 RMK AO2 TSB56 OCNL LTGICCCCACG NW-N TS NW-N MOV NE
KMDQ 111900Z AUTO 20019G24KT 10SM VCTS BKN041 BKN050 OVC060 24/18 A2975 RMK AO2 LTG DSNT ALQS
KMDQ 111920Z AUTO 25008G22KT 5SM TSRA SCT023 BKN039 OVC046 22/17 A2977 RMK AO2 P0003 LTG DSNT ALQS
KHSV 111924Z 20014G27KT 8SM -RA SCT047CB BKN065 BKN080 OVC200 24/18 A2976 RMK AO2 PK WND 22028/1911 TSB1856E22RAB17 CB SW-W MOV NE CB DSNT NE AND SE P0000
KDCU 111930Z AUTO 27012KT 1 1/2SM +TSRA BR BKN030 BKN039 OVC060 22/20 A2979 RMK AO2 LTG DSNT ALQDS PRESRR P0013
KDCU 111932Z AUTO 25014G19KT 3/4SM +TSRA BR FEW002 BKN030 OVC060 21/20 A2979 RMK AO2 LTG DSNT ALQDS PRESRR P0027
KHSV 111934Z 23011KT 9SM -TSRA BKN042CB BKN050 BKN080 OVC200 24/18 A2978 RMK AO2 PK WND 22028/1911 TSB1856E22B28RAB17 FRQ LTGICCCCACG SW-W TS SW-W MOV NE P0000
KDCU 111939Z AUTO 21010G24KT 1/4SM +TSRA FG FEW002 BKN020 OVC043 19/18 A2977 RMK AO2 LTG DSNT ALQDS P0071
KMDQ 111940Z AUTO 25006KT 10SM TSRA SCT027 BKN044 OVC065 21/18 A2975 RMK AO2 P0004 LTG DSNT ALQS
KHSV 111944Z 29018G24KT 3/4SM R18R/2800VP6000FT +TSRA BKN033CB OVC065 22/19 A2978 RMK AO2 PK WND 22028/1911 TSB1856E22B28RAB17 FRQ LTGICCCCACG SW-W TS SW-W MOV NE P0006
KDCU 111945Z AUTO 26007G16KT 1/2SM TSRA FG FEW002 BKN013 OVC044 19/18 A2979 RMK AO2 WSHFT 1926 LTG DSNT ALQDS P0072
KDCU 111948Z AUTO 23007G16KT 1 1/2SM -TSRA BR FEW002 BKN028 OVC050 20/18 A2979 RMK AO2 WSHFT 1926 LTG DSNT ALQDS P0072
METAR KHSV 111949Z 28013G24KT 1/2SM R18R/2200VP6000FT +TSRA FG OVC028CB 21/19 A2978 RMK AO2 PK WND 22028/1911 WSHFT 1932 TSB1856E22B28RAB17 SLP079 FRQ LTGICCCCACG OHD SW-W TS OHD SW-W MOV NE P0031 T02110189
KDCU 111950Z AUTO 23005KT 3SM -TSRA BR FEW002 BKN028 OVC048 20/18 A2979 RMK AO2 WSHFT 1926 LTG DSNT ALQDS P0073
KDCU 111953Z AUTO 24008KT 3SM +TSRA BR SCT008 BKN021 OVC048 20/18 A2979 RMK AO2 WSHFT 1926 LTG DSNT E-SW SLP084 P0074 T02000183
KHSV 111956Z 27019G26KT 1/2SM R18R/2000V5500FT +TSRA FG OVC024CB 21/19 A2981 RMK AO2 PK WND 27026/1956 WSHFT 1936 FRQ LTGICCCCACG OHD ALQDS TS OHD ALQDS MOV NE P0030
KMDQ 112000Z AUTO 24010G15KT 4SM TSRA SCT028 BKN042 OVC060 21/18 A2977 RMK AO2 P0002 LTG DSNT ALQS
KDCU 112008Z AUTO 27008KT 9SM VCTS -RA BKN014 BKN044 OVC060 20/19 A2978 RMK AO2 LTG DSNT ALQDS P0001
KHSV 112009Z 25009KT 2SM -TSRA BR FEW006 BKN016CB OVC055 21/19 A2979 RMK AO2 PK WND 27026/1956 WSHFT 1936 FRQ LTGICCCCACG NE-SE TS NE-SE MOV NE P0050
KDCU 112010Z AUTO 28008KT 10SM -RA SCT014 BKN044 OVC100 21/19 A2978 RMK AO2 LTG DSNT ALQDS TSE09 P0001
KHSV 112013Z 26008KT 8SM -RA FEW006 BKN026 BKN050 21/19 A2979 RMK AO2 PK WND 27026/1956 WSHFT 1936 TSE13 FRQ LTGICCCCACG DSNT NE-SE CB DSNT NE-SE P0050
KMDQ 112020Z AUTO 24007G16KT 5SM -TSRA BKN016 BKN031 OVC045 21/19 A2977 RMK AO2 P0006 LTG DSNT ALQS
KHSV 112023Z 26010KT 10SM FEW011 SCT031 BKN095 OVC200 21/19 A2979 RMK AO2 PK WND 27026/1956 WSHFT 1936 TSE13RAE18 FRQ LTGICCCCACG DSNT NE-SE CB DSNT NE-SE P0050
KMDQ 112040Z AUTO 25007KT 7SM TS BKN009 BKN013 OVC019 21/20 A2978 RMK AO2 P0006 LTG DSNT ALQS
KDCU 112053Z AUTO 25010KT 10SM -RA BKN043 OVC060 20/18 A2978 RMK AO2 LTG DSNT N-SE TSE09RAE13B53 SLP079 P0001 60084 T02000178 50009
METAR KHSV 112053Z 25009KT 10SM -RA FEW060 BKN080 OVC140 21/18 A2979 RMK AO2 PK WND 27026/1956 WSHFT 1936 TSE13RAE18B37 SLP080 8/72/ P0050 60081 T02060183 52005
KMDQ 112100Z AUTO 22007KT 10SM VCTS SCT009 BKN039 OVC085 21/18 A2977 RMK AO2 LTG DSNT N THRU SE
KMDQ 112120Z AUTO 22008KT 10SM TSRA SCT039 BKN065 OVC075 21/17 A2978 RMK AO2 P0001 LTG DSNT ALQS
KMDQ 112140Z AUTO 23008KT 10SM SCT029 BKN050 OVC060 20/16 A2977 RMK AO2 P0004 LTG DSNT E THRU SW
KDCU 112153Z AUTO 24007G15KT 10SM BKN090 21/12 A2977 RMK AO2 LTG DSNT E AND SE RAE09 SLP076 P0000 T02060122
METAR KHSV 112153Z 22006KT 10SM FEW046 BKN055 BKN100 OVC150 21/17 A2979 RMK AO2 RAE21 SLP082 P0004 T02060172
KMDQ 112200Z AUTO 18006KT 10SM OVC050 20/16 A2978 RMK AO2 LTG DSNT E THRU S
KMDQ 112220Z AUTO 19004KT 10SM TS BKN050 SCT075 BKN100 21/15 A2976 RMK AO2 LTG DSNT E
KMDQ 112240Z AUTO 20007KT 10SM SCT090 SCT120 21/16 A2976 RMK AO2 LTG DSNT E AND S
KDCU 112253Z AUTO 21006KT 10SM SCT065 BKN095 21/13 A2978 RMK AO2 SLP078 T02060128
METAR KHSV 112253Z 23009KT 10SM BKN060 BKN100 BKN150 21/12 A2979 RMK AO2 SLP082 T02110122
KMDQ 112300Z AUTO 20008KT 10SM BKN070 BKN090 21/16 A2978 RMK AO2
KMDQ 112320Z AUTO 19007KT 10SM BKN060 OVC095 20/13 A2977 RMK AO2 LTG DSNT E AND S
KMDQ 112340Z AUTO 18006KT 10SM BKN070 OVC095 20/15 A2977 RMK AO2 LTG DSNT E
METAR KHSV 112353Z 19004KT 10SM OVC070 21/16 A2979 RMK AO2 SLP082 8/07/ BINOVC 60085 T02060156 10272 20200 51002
111 10250 20189 53001